IRIDIUM 154             
1 43574U 18061F   26162.44081565  .00000017  00000+0 -94595-6 0  9995
2 43574  86.3968  59.2095 0002095  87.5248 272.6188 14.34217587412581
IRIDIUM 163             
1 43575U 18061G   26162.63108550  .00000183  00000+0  58199-4 0  9992
2 43575  86.3964  59.0455 0002290  83.4906 276.6550 14.34216492412580
IRIDIUM 156             
1 43576U 18061H   26162.46618499  .00000168  00000+0  52852-4 0  9995
2 43576  86.3963  59.1215 0002117  80.5343 279.6092 14.34216761412556
IRIDIUM 164             
1 43577U 18061J   26162.23785248  .00000071  00000+0  18383-4 0  9992
2 43577  86.3967  59.2573 0002088  88.7305 271.4130 14.34217604412565
IRIDIUM 159             
1 43578U 18061K   26162.62475089  .00000122  00000+0  36381-4 0  9990
2 43578  86.3963  59.0326 0002315  84.4424 275.7036 14.34217274412581
IRIDIUM 180             
1 43922U 19002A   26162.62424633  .00000004  00000+0 -55045-5 0  9997
2 43922  86.3967 355.9237 0002141  89.0468 271.0973 14.34217695388198
IRIDIUM 176             
1 43923U 19002B   26162.58562391  .00000691  00000+0  10567-3 0  9996
2 43923  86.6092 355.8843 0002239  91.6115 268.5359 14.72259705398425
IRIDIUM 168             
1 43924U 19002C   26162.61790469  .00000043  00000+0  82047-5 0  9995
2 43924  86.3974 356.0035 0002172  88.8513 271.2932 14.34217797388176
IRIDIUM 173             
1 43925U 19002D   26162.60521894  .00000005  00000+0 -52121-5 0  9998
2 43925  86.3965 355.8977 0002125  86.6051 273.5388 14.34217084388157
IRIDIUM 169             
1 43926U 19002E   26162.61822476  .00000124  00000+0  33879-4 0  9999
2 43926  86.4230  27.5219 0002049  70.9449 289.1971 14.38606177389429
IRIDIUM 172             
1 43927U 19002F   26162.59887524  .00000175  00000+0  55461-4 0  9999
2 43927  86.3970 355.9086 0002257  89.5000 270.6455 14.34216981388168
IRIDIUM 175             
1 43928U 19002G   26162.45338721  .00000262  00000+0  71507-4 0  9991
2 43928  86.4508 292.9181 0001749 200.8836 159.2294 14.43609548398151
IRIDIUM 171             
1 43929U 19002H   26162.57984719 -.00000279  00000+0 -10664-3 0  9995
2 43929  86.3975 356.2219 0001920  86.0644 274.0772 14.34217083388152
IRIDIUM 170             
1 43930U 19002J   26162.59180643  .00000687  00000+0  10501-3 0  9994
2 43930  86.6090 355.8840 0002363  88.1225 272.0263 14.72260116398432
IRIDIUM 167             
1 43931U 19002K   26162.57350546  .00000053  00000+0  11950-4 0  9991
2 43931  86.3971 355.9413 0001851  87.5306 272.6101 14.34217893388156
IRIDIUM 181             
1 56726U 23068S   26162.62943623  .00000276  00000+0  76132-4 0  9994
2 56726  86.4502  59.1139 0002318  90.3041 269.8425 14.43311740161633
IRIDIUM 177             
1 56727U 23068T   26162.50882650  .00000916  00000+0  11706-3 0  9990
2 56727  86.1959 331.4891 0002413  87.3635 272.7862 14.80219553165529
IRIDIUM 174             
1 56728U 23068U   26162.57945567  .00000710  00000+0  10861-3 0  9998
2 56728  86.6098 356.0361 0002543  84.7822 275.3685 14.72256247165194
IRIDIUM 178             
1 56729U 23068V   26162.63316136  .00000864  00000+0  11028-3 0  9996
2 56729  86.6542  27.6815 0002679  87.4832 272.6696 14.80224307165547
IRIDIUM 179             
1 56730U 23068W   26162.62777364  .00000927  00000+0  11858-3 0  9992
2 56730  86.6781  36.6470 0002402  88.1850 271.9647 14.80236322165541
