OBJECT_NAME,OBJECT_ID,EPOCH,MEAN_MOTION,ECCENTRICITY,INCLINATION,RA_OF_ASC_NODE,ARG_OF_PERICENTER,MEAN_ANOMALY,EPHEMERIS_TYPE,CLASSIFICATION_TYPE,NORAD_CAT_ID,ELEMENT_SET_NO,REV_AT_EPOCH,BSTAR,MEAN_MOTION_DOT,MEAN_MOTION_DDOT
IRIDIUM 154,2018-061F,2026-06-11T10:34:46.472160,14.34217587,.00020955,86.3968,59.2095,87.5248,272.6188,0,U,43574,999,41258,-.945947E-6,.17E-6,0
IRIDIUM 163,2018-061G,2026-06-11T15:08:45.787200,14.34216492,.00022909,86.3964,59.0455,83.4906,276.6550,0,U,43575,999,41258,.58198867E-4,.183E-5,0
IRIDIUM 156,2018-061H,2026-06-11T11:11:18.383136,14.34216761,.00021175,86.3963,59.1215,80.5343,279.6092,0,U,43576,999,41255,.52851818E-4,.168E-5,0
IRIDIUM 164,2018-061J,2026-06-11T05:42:30.454272,14.34217604,.00020885,86.3967,59.2573,88.7305,271.4130,0,U,43577,999,41256,.18382817E-4,.71E-6,0
IRIDIUM 159,2018-061K,2026-06-11T14:59:38.476896,14.34217274,.0002315,86.3963,59.0326,84.4424,275.7036,0,U,43578,999,41258,.36380877E-4,.122E-5,0
IRIDIUM 180,2019-002A,2026-06-11T14:58:54.882912,14.34217695,.00021411,86.3967,355.9237,89.0468,271.0973,0,U,43922,999,38819,-.5504517E-5,.4E-7,0
IRIDIUM 176,2019-002B,2026-06-11T14:03:17.905824,14.72259705,.00022391,86.6092,355.8843,91.6115,268.5359,0,U,43923,999,39842,.10567391E-3,.691E-5,0
IRIDIUM 168,2019-002C,2026-06-11T14:49:46.965216,14.34217797,.00021725,86.3974,356.0035,88.8513,271.2932,0,U,43924,999,38817,.8204722E-5,.43E-6,0
IRIDIUM 173,2019-002D,2026-06-11T14:31:30.916416,14.34217084,.00021259,86.3965,355.8977,86.6051,273.5388,0,U,43925,999,38815,-.5212058E-5,.5E-7,0
IRIDIUM 169,2019-002E,2026-06-11T14:50:14.619264,14.38606177,.00020495,86.4230,27.5219,70.9449,289.1971,0,U,43926,999,38942,.33879387E-4,.124E-5,0
IRIDIUM 172,2019-002F,2026-06-11T14:22:22.820736,14.34216981,.00022576,86.3970,355.9086,89.5000,270.6455,0,U,43927,999,38816,.55461193E-4,.175E-5,0
IRIDIUM 175,2019-002G,2026-06-11T10:52:52.654944,14.43609548,.0001749,86.4508,292.9181,200.8836,159.2294,0,U,43928,999,39815,.715066E-4,.262E-5,0
IRIDIUM 171,2019-002H,2026-06-11T13:54:58.797216,14.34217083,.00019204,86.3975,356.2219,86.0644,274.0772,0,U,43929,999,38815,-.10663691E-3,-.279E-5,0
IRIDIUM 170,2019-002J,2026-06-11T14:12:12.075552,14.72260116,.00023635,86.6090,355.8840,88.1225,272.0263,0,U,43930,999,39843,.10501426E-3,.687E-5,0
IRIDIUM 167,2019-002K,2026-06-11T13:45:50.871744,14.34217893,.00018518,86.3971,355.9413,87.5306,272.6101,0,U,43931,999,38815,.11949695E-4,.53E-6,0
IRIDIUM 181,2023-068S,2026-06-11T15:06:23.290272,14.43311740,.00023181,86.4502,59.1139,90.3041,269.8425,0,U,56726,999,16163,.76131602E-4,.276E-5,0
IRIDIUM 177,2023-068T,2026-06-11T12:12:42.609600,14.80219553,.00024131,86.1959,331.4891,87.3635,272.7862,0,U,56727,999,16552,.1170596E-3,.916E-5,0
IRIDIUM 174,2023-068U,2026-06-11T13:54:24.969888,14.72256247,.0002543,86.6098,356.0361,84.7822,275.3685,0,U,56728,999,16519,.10860725E-3,.71E-5,0
IRIDIUM 178,2023-068V,2026-06-11T15:11:45.141504,14.80224307,.00026797,86.6542,27.6815,87.4832,272.6696,0,U,56729,999,16554,.11027688E-3,.864E-5,0
IRIDIUM 179,2023-068W,2026-06-11T15:03:59.642496,14.80236322,.00024027,86.6781,36.6470,88.1850,271.9647,0,U,56730,999,16554,.11857927E-3,.927E-5,0
